{
  "type": "FeatureCollection",
  "features": [
    {
      "type": "Feature",
      "properties": {
        "norad_id": 52912,
        "name": "GAOFEN-12 03",
        "group": "resource",
        "lat": -28.324820585359394,
        "lon": 59.34103895905163,
        "alt_km": 637.6110815359034,
        "timestamp": "2025-12-22T11:33:20.087262+00:00",
        "meta_object_name": "GAOFEN-12 03",
        "meta_object_id": "2022-069A",
        "meta_epoch": "2025-12-22T04:07:26.910336",
        "meta_mean_motion": 14.79628443,
        "meta_eccentricity": 0.000191,
        "meta_inclination": 97.8486,
        "meta_ra_of_asc_node": 243.3025,
        "meta_arg_of_pericenter": 50.6881,
        "meta_mean_anomaly": 309.45,
        "meta_ephemeris_type": 0,
        "meta_classification_type": "U",
        "meta_norad_cat_id": 52912,
        "meta_element_set_no": 999,
        "meta_rev_at_epoch": 18843,
        "meta_bstar": 0.00010865,
        "meta_mean_motion_dot": 7.64e-06,
        "meta_mean_motion_ddot": 0,
        "tle_line1": "1 52912U 22069A   25356.17183924  .00000764  00000+0  10865-3 0  9993",
        "tle_line2": "2 52912  97.8486 243.3025 0001910  50.6881 309.4500 14.79628443188434"
      },
      "geometry": {
        "type": "Point",
        "coordinates": [
          59.34103895905163,
          -28.324820585359394
        ]
      }
    },
    {
      "type": "Feature",
      "properties": {
        "norad_id": 54754,
        "name": "SWOT",
        "group": "resource",
        "lat": -70.15015675170015,
        "lon": -123.66692033005448,
        "alt_km": 900.5746261861159,
        "timestamp": "2025-12-22T11:33:20.087272+00:00",
        "meta_object_name": "SWOT",
        "meta_object_id": "2022-173A",
        "meta_epoch": "2025-12-22T03:20:08.676384",
        "meta_mean_motion": 14.00168165,
        "meta_eccentricity": 3.68e-05,
        "meta_inclination": 77.611,
        "meta_ra_of_asc_node": 274.3021,
        "meta_arg_of_pericenter": 85.6077,
        "meta_mean_anomaly": 274.5117,
        "meta_ephemeris_type": 0,
        "meta_classification_type": "U",
        "meta_norad_cat_id": 54754,
        "meta_element_set_no": 999,
        "meta_rev_at_epoch": 15437,
        "meta_bstar": 1.3956e-05,
        "meta_mean_motion_dot": 1.8e-07,
        "meta_mean_motion_ddot": 0,
        "tle_line1": "1 54754U 22173A   25356.13898931  .00000018  00000+0  13956-4 0  9999",
        "tle_line2": "2 54754  77.6110 274.3021 0000368  85.6077 274.5117 14.00168165154377"
      },
      "geometry": {
        "type": "Point",
        "coordinates": [
          -123.66692033005448,
          -70.15015675170015
        ]
      }
    },
    {
      "type": "Feature",
      "properties": {
        "norad_id": 57654,
        "name": "GAOFEN-12 04",
        "group": "resource",
        "lat": 21.101616187204428,
        "lon": -90.9855558632058,
        "alt_km": 629.6277457400902,
        "timestamp": "2025-12-22T11:33:20.087282+00:00",
        "meta_object_name": "GAOFEN-12 04",
        "meta_object_id": "2023-123A",
        "meta_epoch": "2025-12-22T04:58:04.516608",
        "meta_mean_motion": 14.7972609,
        "meta_eccentricity": 0.0001214,
        "meta_inclination": 97.9128,
        "meta_ra_of_asc_node": 271.8208,
        "meta_arg_of_pericenter": 78.0116,
        "meta_mean_anomaly": 282.1231,
        "meta_ephemeris_type": 0,
        "meta_classification_type": "U",
        "meta_norad_cat_id": 57654,
        "meta_element_set_no": 999,
        "meta_rev_at_epoch": 12645,
        "meta_bstar": 0.00017295,
        "meta_mean_motion_dot": 1.248e-05,
        "meta_mean_motion_ddot": 0,
        "tle_line1": "1 57654U 23123A   25356.20699672  .00001248  00000+0  17295-3 0  9991",
        "tle_line2": "2 57654  97.9128 271.8208 0001214  78.0116 282.1231 14.79726090126456"
      },
      "geometry": {
        "type": "Point",
        "coordinates": [
          -90.9855558632058,
          21.101616187204428
        ]
      }
    },
    {
      "type": "Feature",
      "properties": {
        "norad_id": 59065,
        "name": "PARS 1",
        "group": "resource",
        "lat": 46.1321197647156,
        "lon": -40.21797529713386,
        "alt_km": 430.57701993169576,
        "timestamp": "2025-12-22T11:33:20.087292+00:00",
        "meta_object_name": "PARS 1",
        "meta_object_id": "2024-039Q",
        "meta_epoch": "2025-12-22T05:07:16.604832",
        "meta_mean_motion": 15.41176294,
        "meta_eccentricity": 0.0011888,
        "meta_inclination": 97.4648,
        "meta_ra_of_asc_node": 327.3481,
        "meta_arg_of_pericenter": 43.4352,
        "meta_mean_anomaly": 316.7829,
        "meta_ephemeris_type": 0,
        "meta_classification_type": "U",
        "meta_norad_cat_id": 59065,
        "meta_element_set_no": 999,
        "meta_rev_at_epoch": 10134,
        "meta_bstar": 0.00031071,
        "meta_mean_motion_dot": 0.00012836,
        "meta_mean_motion_ddot": 0,
        "tle_line1": "1 59065U 24039Q   25356.21338663  .00012836  00000+0  31071-3 0  9990",
        "tle_line2": "2 59065  97.4648 327.3481 0011888  43.4352 316.7829 15.41176294101345"
      },
      "geometry": {
        "type": "Point",
        "coordinates": [
          -40.21797529713386,
          46.1321197647156
        ]
      }
    },
    {
      "type": "Feature",
      "properties": {
        "norad_id": 59371,
        "name": "RESURS-P 4",
        "group": "resource",
        "lat": -54.318444644610004,
        "lon": 112.39173031937909,
        "alt_km": 477.07043078290917,
        "timestamp": "2025-12-22T11:33:20.087324+00:00",
        "meta_object_name": "RESURS-P 4",
        "meta_object_id": "2024-061A",
        "meta_epoch": "2025-12-22T04:15:49.396320",
        "meta_mean_motion": 15.32155827,
        "meta_eccentricity": 9.31e-05,
        "meta_inclination": 97.2562,
        "meta_ra_of_asc_node": 302.3146,
        "meta_arg_of_pericenter": 67.8625,
        "meta_mean_anomaly": 292.2715,
        "meta_ephemeris_type": 0,
        "meta_classification_type": "U",
        "meta_norad_cat_id": 59371,
        "meta_element_set_no": 999,
        "meta_rev_at_epoch": 9665,
        "meta_bstar": 0.00013282,
        "meta_mean_motion_dot": 4.047e-05,
        "meta_mean_motion_ddot": 0,
        "tle_line1": "1 59371U 24061A   25356.17765505  .00004047  00000+0  13282-3 0  9998",
        "tle_line2": "2 59371  97.2562 302.3146 0000931  67.8625 292.2715 15.32155827 96657"
      },
      "geometry": {
        "type": "Point",
        "coordinates": [
          112.39173031937909,
          -54.318444644610004
        ]
      }
    },
    {
      "type": "Feature",
      "properties": {
        "norad_id": 59625,
        "name": "LEGION 1",
        "group": "resource",
        "lat": -81.49200958472807,
        "lon": 133.0546682025272,
        "alt_km": 521.0816405911728,
        "timestamp": "2025-12-22T11:33:20.087335+00:00",
        "meta_object_name": "LEGION 1",
        "meta_object_id": "2024-081A",
        "meta_epoch": "2025-12-22T04:00:59.905728",
        "meta_mean_motion": 15.16565978,
        "meta_eccentricity": 0.0003629,
        "meta_inclination": 97.5203,
        "meta_ra_of_asc_node": 70.7257,
        "meta_arg_of_pericenter": 273.9445,
        "meta_mean_anomaly": 86.1373,
        "meta_ephemeris_type": 0,
        "meta_classification_type": "U",
        "meta_norad_cat_id": 59625,
        "meta_element_set_no": 999,
        "meta_rev_at_epoch": 9070,
        "meta_bstar": 0.00027387,
        "meta_mean_motion_dot": 5.279e-05,
        "meta_mean_motion_ddot": 0,
        "tle_line1": "1 59625U 24081A   25356.16736002  .00005279  00000+0  27387-3 0  9990",
        "tle_line2": "2 59625  97.5203  70.7257 0003629 273.9445  86.1373 15.16565978 90704"
      },
      "geometry": {
        "type": "Point",
        "coordinates": [
          133.0546682025272,
          -81.49200958472807
        ]
      }
    },
    {
      "type": "Feature",
      "properties": {
        "norad_id": 59626,
        "name": "LEGION 2",
        "group": "resource",
        "lat": 81.39281437762983,
        "lon": -48.089678499852724,
        "alt_km": 512.3480652978014,
        "timestamp": "2025-12-22T11:33:20.087346+00:00",
        "meta_object_name": "LEGION 2",
        "meta_object_id": "2024-081B",
        "meta_epoch": "2025-12-22T03:13:26.063616",
        "meta_mean_motion": 15.16579271,
        "meta_eccentricity": 0.0005659,
        "meta_inclination": 97.5206,
        "meta_ra_of_asc_node": 70.7808,
        "meta_arg_of_pericenter": 252.7778,
        "meta_mean_anomaly": 107.2835,
        "meta_ephemeris_type": 0,
        "meta_classification_type": "U",
        "meta_norad_cat_id": 59626,
        "meta_element_set_no": 999,
        "meta_rev_at_epoch": 9070,
        "meta_bstar": 0.00024317,
        "meta_mean_motion_dot": 4.682e-05,
        "meta_mean_motion_ddot": 0,
        "tle_line1": "1 59626U 24081B   25356.13432944  .00004682  00000+0  24317-3 0  9993",
        "tle_line2": "2 59626  97.5206  70.7808 0005659 252.7778 107.2835 15.16579271 90708"
      },
      "geometry": {
        "type": "Point",
        "coordinates": [
          -48.089678499852724,
          81.39281437762983
        ]
      }
    }
  ]
}